UNKNOWN                 
1 81779U          26050.51413044 -.00006812  00000+0 -42984+0 0  9991
2 81779  54.5055 106.6406 1478700 114.4258 261.7721  9.33874084486744
UNKNOWN                 
1 81792U          26036.12073478  .00002293  00000+0  82072-3 0  9993
2 81792  65.8323 333.6358 0895407 258.4387  91.4916 13.11228588 87168
UNKNOWN                 
1 81812U          26050.27901013  .00005621  00000+0  38979-1 0  9996
2 81812 103.8091 335.7478 0255312 113.9319 248.8699 12.37944393549049
UNKNOWN                 
1 81816U          26051.19292539  .00001766  00000+0  13295-2 0  9999
2 81816  66.2379 122.9393 0175253 208.3100 150.8366 13.89704211618993
UNKNOWN                 
1 81819U          26050.21248191  .00000917  00000+0  65101-2 0  9999
2 81819 102.1740 153.3389 0030699 343.5242  16.4826 12.47814244556556
UNKNOWN                 
1 81824U          26051.62601542  .00004198  00000+0  14465-2 0  9996
2 81824  65.8421 146.3616 0047300 298.2444  61.3879 14.36284018634627
UNKNOWN                 
1 81833U          26047.31470779  .00000271  00000+0  95556-3 0  9992
2 81833  90.2455   4.3434 0024904 209.7249 150.2456 12.93754278460999
UNKNOWN                 
1 81838U          26049.12646420  .00005450  00000+0  11868-2 0  9993
2 81838  67.7591  90.0093 0044471 303.2421  88.1018 14.57992297643151
UNKNOWN                 
1 81844U          26050.81179390  .00005772  00000+0  20358-2 0  9996
2 81844  82.9095 225.9041 0060561 300.5860  58.9363 14.33616766632786
UNKNOWN                 
1 81845U          26051.01152745  .00002118  00000+0  23408-3 0  9996
2 81845  97.6761 240.5497 0088326  77.2966  72.7080 14.85619162659804
UNKNOWN                 
1 81864U          26033.13071996  .00002440  00000+0  94023-3 0  9997
2 81864  65.6733 306.7363 0766542 350.9348   7.8479 13.32666652557685
UNKNOWN                 
1 81865U          26050.10964418  .00001036  00000+0  84119-3 0  9999
2 81865  82.8080 335.8943 0060756 168.5468 255.2890 13.88231715618031
