CCSDS_OMM_VERS = 2.0
CREATION_DATE  = 
ORIGINATOR     = 

OBJECT_NAME    = UNKNOWN
OBJECT_ID      = 
CENTER_NAME    = EARTH
REF_FRAME      = TEME
TIME_SYSTEM    = UTC
MEAN_ELEMENT_THEORY = SGP/SGP4

EPOCH          = 2026-02-19T12:20:20.870016
MEAN_MOTION    = 9.33874084
ECCENTRICITY   = .14787
INCLINATION    = 54.5055
RA_OF_ASC_NODE = 106.6406
ARG_OF_PERICENTER = 114.4258
MEAN_ANOMALY   = 261.7721

EPHEMERIS_TYPE = 0
CLASSIFICATION_TYPE = U
NORAD_CAT_ID   = 81779
ELEMENT_SET_NO = 999
REV_AT_EPOCH   = 48674
BSTAR          = -.42984E+0
MEAN_MOTION_DOT = -.6812E-4
MEAN_MOTION_DDOT = 0

CCSDS_OMM_VERS = 2.0
CREATION_DATE  = 
ORIGINATOR     = 

OBJECT_NAME    = UNKNOWN
OBJECT_ID      = 
CENTER_NAME    = EARTH
REF_FRAME      = TEME
TIME_SYSTEM    = UTC
MEAN_ELEMENT_THEORY = SGP/SGP4

EPOCH          = 2026-02-05T02:53:51.484992
MEAN_MOTION    = 13.11228588
ECCENTRICITY   = .0895407
INCLINATION    = 65.8323
RA_OF_ASC_NODE = 333.6358
ARG_OF_PERICENTER = 258.4387
MEAN_ANOMALY   = 91.4916

EPHEMERIS_TYPE = 0
CLASSIFICATION_TYPE = U
NORAD_CAT_ID   = 81792
ELEMENT_SET_NO = 999
REV_AT_EPOCH   = 8716
BSTAR          = .82072E-3
MEAN_MOTION_DOT = .2293E-4
MEAN_MOTION_DDOT = 0

CCSDS_OMM_VERS = 2.0
CREATION_DATE  = 
ORIGINATOR     = 

OBJECT_NAME    = UNKNOWN
OBJECT_ID      = 
CENTER_NAME    = EARTH
REF_FRAME      = TEME
TIME_SYSTEM    = UTC
MEAN_ELEMENT_THEORY = SGP/SGP4

EPOCH          = 2026-02-19T06:41:46.475232
MEAN_MOTION    = 12.37944393
ECCENTRICITY   = .0255312
INCLINATION    = 103.8091
RA_OF_ASC_NODE = 335.7478
ARG_OF_PERICENTER = 113.9319
MEAN_ANOMALY   = 248.8699

EPHEMERIS_TYPE = 0
CLASSIFICATION_TYPE = U
NORAD_CAT_ID   = 81812
ELEMENT_SET_NO = 999
REV_AT_EPOCH   = 54904
BSTAR          = .38979E-1
MEAN_MOTION_DOT = .5621E-4
MEAN_MOTION_DDOT = 0

CCSDS_OMM_VERS = 2.0
CREATION_DATE  = 
ORIGINATOR     = 

OBJECT_NAME    = UNKNOWN
OBJECT_ID      = 
CENTER_NAME    = EARTH
REF_FRAME      = TEME
TIME_SYSTEM    = UTC
MEAN_ELEMENT_THEORY = SGP/SGP4

EPOCH          = 2026-02-20T04:37:48.753696
MEAN_MOTION    = 13.89704211
ECCENTRICITY   = .0175253
INCLINATION    = 66.2379
RA_OF_ASC_NODE = 122.9393
ARG_OF_PERICENTER = 208.3100
MEAN_ANOMALY   = 150.8366

EPHEMERIS_TYPE = 0
CLASSIFICATION_TYPE = U
NORAD_CAT_ID   = 81816
ELEMENT_SET_NO = 999
REV_AT_EPOCH   = 61899
BSTAR          = .13295E-2
MEAN_MOTION_DOT = .1766E-4
MEAN_MOTION_DDOT = 0

CCSDS_OMM_VERS = 2.0
CREATION_DATE  = 
ORIGINATOR     = 

OBJECT_NAME    = UNKNOWN
OBJECT_ID      = 
CENTER_NAME    = EARTH
REF_FRAME      = TEME
TIME_SYSTEM    = UTC
MEAN_ELEMENT_THEORY = SGP/SGP4

EPOCH          = 2026-02-19T05:05:58.437024
MEAN_MOTION    = 12.47814244
ECCENTRICITY   = .0030699
INCLINATION    = 102.1740
RA_OF_ASC_NODE = 153.3389
ARG_OF_PERICENTER = 343.5242
MEAN_ANOMALY   = 16.4826

EPHEMERIS_TYPE = 0
CLASSIFICATION_TYPE = U
NORAD_CAT_ID   = 81819
ELEMENT_SET_NO = 999
REV_AT_EPOCH   = 55655
BSTAR          = .65101E-2
MEAN_MOTION_DOT = .917E-5
MEAN_MOTION_DDOT = 0

CCSDS_OMM_VERS = 2.0
CREATION_DATE  = 
ORIGINATOR     = 

OBJECT_NAME    = UNKNOWN
OBJECT_ID      = 
CENTER_NAME    = EARTH
REF_FRAME      = TEME
TIME_SYSTEM    = UTC
MEAN_ELEMENT_THEORY = SGP/SGP4

EPOCH          = 2026-02-20T15:01:27.732288
MEAN_MOTION    = 14.36284018
ECCENTRICITY   = .00473
INCLINATION    = 65.8421
RA_OF_ASC_NODE = 146.3616
ARG_OF_PERICENTER = 298.2444
MEAN_ANOMALY   = 61.3879

EPHEMERIS_TYPE = 0
CLASSIFICATION_TYPE = U
NORAD_CAT_ID   = 81824
ELEMENT_SET_NO = 999
REV_AT_EPOCH   = 63462
BSTAR          = .14465E-2
MEAN_MOTION_DOT = .4198E-4
MEAN_MOTION_DDOT = 0

CCSDS_OMM_VERS = 2.0
CREATION_DATE  = 
ORIGINATOR     = 

OBJECT_NAME    = UNKNOWN
OBJECT_ID      = 
CENTER_NAME    = EARTH
REF_FRAME      = TEME
TIME_SYSTEM    = UTC
MEAN_ELEMENT_THEORY = SGP/SGP4

EPOCH          = 2026-02-16T07:33:10.753056
MEAN_MOTION    = 12.93754278
ECCENTRICITY   = .0024904
INCLINATION    = 90.2455
RA_OF_ASC_NODE = 4.3434
ARG_OF_PERICENTER = 209.7249
MEAN_ANOMALY   = 150.2456

EPHEMERIS_TYPE = 0
CLASSIFICATION_TYPE = U
NORAD_CAT_ID   = 81833
ELEMENT_SET_NO = 999
REV_AT_EPOCH   = 46099
BSTAR          = .95556E-3
MEAN_MOTION_DOT = .271E-5
MEAN_MOTION_DDOT = 0

CCSDS_OMM_VERS = 2.0
CREATION_DATE  = 
ORIGINATOR     = 

OBJECT_NAME    = UNKNOWN
OBJECT_ID      = 
CENTER_NAME    = EARTH
REF_FRAME      = TEME
TIME_SYSTEM    = UTC
MEAN_ELEMENT_THEORY = SGP/SGP4

EPOCH          = 2026-02-18T03:02:06.506880
MEAN_MOTION    = 14.57992297
ECCENTRICITY   = .0044471
INCLINATION    = 67.7591
RA_OF_ASC_NODE = 90.0093
ARG_OF_PERICENTER = 303.2421
MEAN_ANOMALY   = 88.1018

EPHEMERIS_TYPE = 0
CLASSIFICATION_TYPE = U
NORAD_CAT_ID   = 81838
ELEMENT_SET_NO = 999
REV_AT_EPOCH   = 64315
BSTAR          = .11868E-2
MEAN_MOTION_DOT = .545E-4
MEAN_MOTION_DDOT = 0

CCSDS_OMM_VERS = 2.0
CREATION_DATE  = 
ORIGINATOR     = 

OBJECT_NAME    = UNKNOWN
OBJECT_ID      = 
CENTER_NAME    = EARTH
REF_FRAME      = TEME
TIME_SYSTEM    = UTC
MEAN_ELEMENT_THEORY = SGP/SGP4

EPOCH          = 2026-02-19T19:28:58.992960
MEAN_MOTION    = 14.33616766
ECCENTRICITY   = .0060561
INCLINATION    = 82.9095
RA_OF_ASC_NODE = 225.9041
ARG_OF_PERICENTER = 300.5860
MEAN_ANOMALY   = 58.9363

EPHEMERIS_TYPE = 0
CLASSIFICATION_TYPE = U
NORAD_CAT_ID   = 81844
ELEMENT_SET_NO = 999
REV_AT_EPOCH   = 63278
BSTAR          = .20358E-2
MEAN_MOTION_DOT = .5772E-4
MEAN_MOTION_DDOT = 0

CCSDS_OMM_VERS = 2.0
CREATION_DATE  = 
ORIGINATOR     = 

OBJECT_NAME    = UNKNOWN
OBJECT_ID      = 
CENTER_NAME    = EARTH
REF_FRAME      = TEME
TIME_SYSTEM    = UTC
MEAN_ELEMENT_THEORY = SGP/SGP4

EPOCH          = 2026-02-20T00:16:35.971680
MEAN_MOTION    = 14.85619162
ECCENTRICITY   = .0088326
INCLINATION    = 97.6761
RA_OF_ASC_NODE = 240.5497
ARG_OF_PERICENTER = 77.2966
MEAN_ANOMALY   = 72.7080

EPHEMERIS_TYPE = 0
CLASSIFICATION_TYPE = U
NORAD_CAT_ID   = 81845
ELEMENT_SET_NO = 999
REV_AT_EPOCH   = 65980
BSTAR          = .23408E-3
MEAN_MOTION_DOT = .2118E-4
MEAN_MOTION_DDOT = 0

CCSDS_OMM_VERS = 2.0
CREATION_DATE  = 
ORIGINATOR     = 

OBJECT_NAME    = UNKNOWN
OBJECT_ID      = 
CENTER_NAME    = EARTH
REF_FRAME      = TEME
TIME_SYSTEM    = UTC
MEAN_ELEMENT_THEORY = SGP/SGP4

EPOCH          = 2026-02-02T03:08:14.204544
MEAN_MOTION    = 13.32666652
ECCENTRICITY   = .0766542
INCLINATION    = 65.6733
RA_OF_ASC_NODE = 306.7363
ARG_OF_PERICENTER = 350.9348
MEAN_ANOMALY   = 7.8479

EPHEMERIS_TYPE = 0
CLASSIFICATION_TYPE = U
NORAD_CAT_ID   = 81864
ELEMENT_SET_NO = 999
REV_AT_EPOCH   = 55768
BSTAR          = .94023E-3
MEAN_MOTION_DOT = .244E-4
MEAN_MOTION_DDOT = 0

CCSDS_OMM_VERS = 2.0
CREATION_DATE  = 
ORIGINATOR     = 

OBJECT_NAME    = UNKNOWN
OBJECT_ID      = 
CENTER_NAME    = EARTH
REF_FRAME      = TEME
TIME_SYSTEM    = UTC
MEAN_ELEMENT_THEORY = SGP/SGP4

EPOCH          = 2026-02-19T02:37:53.257152
MEAN_MOTION    = 13.88231715
ECCENTRICITY   = .0060756
INCLINATION    = 82.8080
RA_OF_ASC_NODE = 335.8943
ARG_OF_PERICENTER = 168.5468
MEAN_ANOMALY   = 255.2890

EPHEMERIS_TYPE = 0
CLASSIFICATION_TYPE = U
NORAD_CAT_ID   = 81865
ELEMENT_SET_NO = 999
REV_AT_EPOCH   = 61803
BSTAR          = .84119E-3
MEAN_MOTION_DOT = .1036E-4
MEAN_MOTION_DDOT = 0

